ISS (ZARYA)             
1 25544U 98067A   26063.86671769  .00009014  00000+0  17477-3 0  9999
2 25544  51.6315  96.2009 0008177 157.5272 202.6076 15.48447334555585
POISK                   
1 36086U 09060A   26063.86671769  .00009014  00000+0  17477-3 0  9997
2 36086  51.6315  96.2009 0008177 157.5272 202.6076 15.48447334555375
CSS (TIANHE)            
1 48274U 21035A   26063.91577052  .00022117  00000+0  26479-3 0  9992
2 48274  41.4655 237.2033 0006804 243.7896 116.2243 15.60409426276864
ISS (NAUKA)             
1 49044U 21066A   26063.86671769  .00009014  00000+0  17477-3 0  9995
2 49044  51.6315  96.2009 0008177 157.5272 202.6076 15.48447334555407
FREGAT DEB              
1 49271U 11037PF  26062.07347650  .00033502  00000+0  49339-1 0  9994
2 49271  51.6509 320.5956 0955180  44.2014 323.1255 12.39774562211870
CSS (WENTIAN)           
1 53239U 22085A   26063.91577052  .00022117  00000+0  26479-3 0  9995
2 53239  41.4655 237.2033 0006804 243.7896 116.2243 15.60409426276524
CSS (MENGTIAN)          
1 54216U 22143A   26063.91577052  .00022117  00000+0  26479-3 0  9996
2 54216  41.4655 237.2033 0006804 243.7896 116.2243 15.60409426276496
PROGRESS-MS 31          
1 64751U 25146A   26063.86671769  .00009014  00000+0  17477-3 0  9990
2 64751  51.6315  96.2009 0008177 157.5272 202.6076 15.48447334555432
TIANZHOU-9              
1 64786U 25149A   26063.91577052  .00022117  00000+0  26479-3 0  9998
2 64786  41.4655 237.2033 0006804 243.7896 116.2243 15.60409426276501
PROGRESS-MS 32          
1 65586U 25204A   26063.86671769  .00009014  00000+0  17477-3 0  9992
2 65586  51.6315  96.2009 0008177 157.5272 202.6076 15.48447334555529
CYGNUS NG-23            
1 65616U 25208A   26063.86671769  .00009014  00000+0  17477-3 0  9990
2 65616  51.6315  96.2009 0008177 157.5272 202.6076 15.48447334555556
ISS OBJECT XK           
1 65731U 98067XK  26064.05033788  .01274627  10267-2  14240-2 0  9994
2 65731  51.6148  71.0023 0005043  69.2431 290.9123 16.08976708 26151
YOTSUBA-KULOVER         
1 65941U 98067XN  26064.08693588  .00205400  00000+0  11365-2 0  9998
2 65941  51.6207  81.1290 0006035  39.2670 320.8767 15.78427087 22770
BOTAN                   
1 65942U 98067XP  26062.30429370  .04760636  12041-4  14503-2 0  9999
2 65942  51.6040  82.5602 0002926  46.9281 313.1984 16.26065139 22592
E-KAGAKU-1              
1 65943U 98067XQ  26064.09046999  .00202153  00000+0  11329-2 0  9991
2 65943  51.6240  81.1707 0006201  45.9109 314.2402 15.78150178 22775
HRC MONOBLOCK CAMERA    
1 66052U 98067XR  26064.09369237  .00055878  00000+0  63821-3 0  9991
2 66052  51.6268  88.7196 0003467  69.7070 290.4296 15.61628247 21677
